<?xml version="1.0" encoding="UTF-8"?>
<ndm xmlns:xsi="http://www.w3.org/2001/XMLSchema-instance" xsi:noNamespaceSchemaLocation="https://sanaregistry.org/r/ndmxml_unqualified/ndmxml-2.0.0-master-2.0.xsd">
<omm id="CCSDS_OMM_VERS" version="2.0">
<header><CREATION_DATE/><ORIGINATOR/></header><body><segment><metadata><OBJECT_NAME>KUIPER-00016</OBJECT_NAME><OBJECT_ID>2025-088J</OBJECT_ID><CENTER_NAME>EARTH</CENTER_NAME><REF_FRAME>TEME</REF_FRAME><TIME_SYSTEM>UTC</TIME_SYSTEM><MEAN_ELEMENT_THEORY>SGP4</MEAN_ELEMENT_THEORY></metadata><data><meanElements><EPOCH>2025-07-27T18:33:36.976032</EPOCH><MEAN_MOTION>15.12822471</MEAN_MOTION><ECCENTRICITY>.0010183</ECCENTRICITY><INCLINATION>51.8842</INCLINATION><RA_OF_ASC_NODE>29.0912</RA_OF_ASC_NODE><ARG_OF_PERICENTER>57.4320</ARG_OF_PERICENTER><MEAN_ANOMALY>302.7638</MEAN_ANOMALY></meanElements><tleParameters><EPHEMERIS_TYPE>0</EPHEMERIS_TYPE><CLASSIFICATION_TYPE>U</CLASSIFICATION_TYPE><NORAD_CAT_ID>63732</NORAD_CAT_ID><ELEMENT_SET_NO>999</ELEMENT_SET_NO><REV_AT_EPOCH>1398</REV_AT_EPOCH><BSTAR>.76255E-3</BSTAR><MEAN_MOTION_DOT>.13298E-3</MEAN_MOTION_DOT><MEAN_MOTION_DDOT>0</MEAN_MOTION_DDOT></tleParameters></data></segment></body></omm>
<omm id="CCSDS_OMM_VERS" version="2.0">
<header><CREATION_DATE/><ORIGINATOR/></header><body><segment><metadata><OBJECT_NAME>KUIPER-00018</OBJECT_NAME><OBJECT_ID>2025-088K</OBJECT_ID><CENTER_NAME>EARTH</CENTER_NAME><REF_FRAME>TEME</REF_FRAME><TIME_SYSTEM>UTC</TIME_SYSTEM><MEAN_ELEMENT_THEORY>SGP4</MEAN_ELEMENT_THEORY></metadata><data><meanElements><EPOCH>2025-07-28T06:00:02.000160</EPOCH><MEAN_MOTION>15.28990822</MEAN_MOTION><ECCENTRICITY>.0005968</ECCENTRICITY><INCLINATION>51.8743</INCLINATION><RA_OF_ASC_NODE>22.2658</RA_OF_ASC_NODE><ARG_OF_PERICENTER>71.8277</ARG_OF_PERICENTER><MEAN_ANOMALY>166.4933</MEAN_ANOMALY></meanElements><tleParameters><EPHEMERIS_TYPE>0</EPHEMERIS_TYPE><CLASSIFICATION_TYPE>U</CLASSIFICATION_TYPE><NORAD_CAT_ID>63733</NORAD_CAT_ID><ELEMENT_SET_NO>999</ELEMENT_SET_NO><REV_AT_EPOCH>1411</REV_AT_EPOCH><BSTAR>-.22523E-1</BSTAR><MEAN_MOTION_DOT>-.601926E-2</MEAN_MOTION_DOT><MEAN_MOTION_DDOT>0</MEAN_MOTION_DDOT></tleParameters></data></segment></body></omm>
<omm id="CCSDS_OMM_VERS" version="2.0">
<header><CREATION_DATE/><ORIGINATOR/></header><body><segment><metadata><OBJECT_NAME>KUIPER-00019</OBJECT_NAME><OBJECT_ID>2025-088L</OBJECT_ID><CENTER_NAME>EARTH</CENTER_NAME><REF_FRAME>TEME</REF_FRAME><TIME_SYSTEM>UTC</TIME_SYSTEM><MEAN_ELEMENT_THEORY>SGP4</MEAN_ELEMENT_THEORY></metadata><data><meanElements><EPOCH>2025-07-28T04:16:01.368768</EPOCH><MEAN_MOTION>15.36522967</MEAN_MOTION><ECCENTRICITY>.0003857</ECCENTRICITY><INCLINATION>51.8691</INCLINATION><RA_OF_ASC_NODE>22.2588</RA_OF_ASC_NODE><ARG_OF_PERICENTER>92.6259</ARG_OF_PERICENTER><MEAN_ANOMALY>267.5169</MEAN_ANOMALY></meanElements><tleParameters><EPHEMERIS_TYPE>0</EPHEMERIS_TYPE><CLASSIFICATION_TYPE>U</CLASSIFICATION_TYPE><NORAD_CAT_ID>63734</NORAD_CAT_ID><ELEMENT_SET_NO>999</ELEMENT_SET_NO><REV_AT_EPOCH>1411</REV_AT_EPOCH><BSTAR>-.43807E-4</BSTAR><MEAN_MOTION_DOT>-.1974E-4</MEAN_MOTION_DOT><MEAN_MOTION_DDOT>0</MEAN_MOTION_DDOT></tleParameters></data></segment></body></omm>
<omm id="CCSDS_OMM_VERS" version="2.0">
<header><CREATION_DATE/><ORIGINATOR/></header><body><segment><metadata><OBJECT_NAME>KUIPER-00020</OBJECT_NAME><OBJECT_ID>2025-088M</OBJECT_ID><CENTER_NAME>EARTH</CENTER_NAME><REF_FRAME>TEME</REF_FRAME><TIME_SYSTEM>UTC</TIME_SYSTEM><MEAN_ELEMENT_THEORY>SGP4</MEAN_ELEMENT_THEORY></metadata><data><meanElements><EPOCH>2025-07-28T06:00:02.000160</EPOCH><MEAN_MOTION>15.23926106</MEAN_MOTION><ECCENTRICITY>.0007816</ECCENTRICITY><INCLINATION>51.8791</INCLINATION><RA_OF_ASC_NODE>22.9917</RA_OF_ASC_NODE><ARG_OF_PERICENTER>65.3861</ARG_OF_PERICENTER><MEAN_ANOMALY>151.1465</MEAN_ANOMALY></meanElements><tleParameters><EPHEMERIS_TYPE>0</EPHEMERIS_TYPE><CLASSIFICATION_TYPE>U</CLASSIFICATION_TYPE><NORAD_CAT_ID>63735</NORAD_CAT_ID><ELEMENT_SET_NO>999</ELEMENT_SET_NO><REV_AT_EPOCH>1431</REV_AT_EPOCH><BSTAR>-.65378E-2</BSTAR><MEAN_MOTION_DOT>-.157323E-2</MEAN_MOTION_DOT><MEAN_MOTION_DDOT>0</MEAN_MOTION_DDOT></tleParameters></data></segment></body></omm>
<omm id="CCSDS_OMM_VERS" version="2.0">
<header><CREATION_DATE/><ORIGINATOR/></header><body><segment><metadata><OBJECT_NAME>KUIPER-00021</OBJECT_NAME><OBJECT_ID>2025-088N</OBJECT_ID><CENTER_NAME>EARTH</CENTER_NAME><REF_FRAME>TEME</REF_FRAME><TIME_SYSTEM>UTC</TIME_SYSTEM><MEAN_ELEMENT_THEORY>SGP4</MEAN_ELEMENT_THEORY></metadata><data><meanElements><EPOCH>2025-07-28T06:00:02.000160</EPOCH><MEAN_MOTION>15.21378632</MEAN_MOTION><ECCENTRICITY>.0005476</ECCENTRICITY><INCLINATION>51.8716</INCLINATION><RA_OF_ASC_NODE>23.4749</RA_OF_ASC_NODE><ARG_OF_PERICENTER>73.0787</ARG_OF_PERICENTER><MEAN_ANOMALY>293.9637</MEAN_ANOMALY></meanElements><tleParameters><EPHEMERIS_TYPE>0</EPHEMERIS_TYPE><CLASSIFICATION_TYPE>U</CLASSIFICATION_TYPE><NORAD_CAT_ID>63736</NORAD_CAT_ID><ELEMENT_SET_NO>999</ELEMENT_SET_NO><REV_AT_EPOCH>1414</REV_AT_EPOCH><BSTAR>.39404E-3</BSTAR><MEAN_MOTION_DOT>.8638E-4</MEAN_MOTION_DOT><MEAN_MOTION_DDOT>0</MEAN_MOTION_DDOT></tleParameters></data></segment></body></omm>
<omm id="CCSDS_OMM_VERS" version="2.0">
<header><CREATION_DATE/><ORIGINATOR/></header><body><segment><metadata><OBJECT_NAME>KUIPER-00023</OBJECT_NAME><OBJECT_ID>2025-088P</OBJECT_ID><CENTER_NAME>EARTH</CENTER_NAME><REF_FRAME>TEME</REF_FRAME><TIME_SYSTEM>UTC</TIME_SYSTEM><MEAN_ELEMENT_THEORY>SGP4</MEAN_ELEMENT_THEORY></metadata><data><meanElements><EPOCH>2025-07-28T06:00:02.000160</EPOCH><MEAN_MOTION>15.19225787</MEAN_MOTION><ECCENTRICITY>.0009444</ECCENTRICITY><INCLINATION>51.8792</INCLINATION><RA_OF_ASC_NODE>24.1209</RA_OF_ASC_NODE><ARG_OF_PERICENTER>73.8241</ARG_OF_PERICENTER><MEAN_ANOMALY>346.0603</MEAN_ANOMALY></meanElements><tleParameters><EPHEMERIS_TYPE>0</EPHEMERIS_TYPE><CLASSIFICATION_TYPE>U</CLASSIFICATION_TYPE><NORAD_CAT_ID>63737</NORAD_CAT_ID><ELEMENT_SET_NO>999</ELEMENT_SET_NO><REV_AT_EPOCH>1443</REV_AT_EPOCH><BSTAR>-.1895E-1</BSTAR><MEAN_MOTION_DOT>-.384792E-2</MEAN_MOTION_DOT><MEAN_MOTION_DDOT>0</MEAN_MOTION_DDOT></tleParameters></data></segment></body></omm>
<omm id="CCSDS_OMM_VERS" version="2.0">
<header><CREATION_DATE/><ORIGINATOR/></header><body><segment><metadata><OBJECT_NAME>KUIPER-00024</OBJECT_NAME><OBJECT_ID>2025-088Q</OBJECT_ID><CENTER_NAME>EARTH</CENTER_NAME><REF_FRAME>TEME</REF_FRAME><TIME_SYSTEM>UTC</TIME_SYSTEM><MEAN_ELEMENT_THEORY>SGP4</MEAN_ELEMENT_THEORY></metadata><data><meanElements><EPOCH>2025-07-28T04:10:39.189216</EPOCH><MEAN_MOTION>15.38468857</MEAN_MOTION><ECCENTRICITY>.0001371</ECCENTRICITY><INCLINATION>51.8717</INCLINATION><RA_OF_ASC_NODE>21.5202</RA_OF_ASC_NODE><ARG_OF_PERICENTER>115.0137</ARG_OF_PERICENTER><MEAN_ANOMALY>245.0993</MEAN_ANOMALY></meanElements><tleParameters><EPHEMERIS_TYPE>0</EPHEMERIS_TYPE><CLASSIFICATION_TYPE>U</CLASSIFICATION_TYPE><NORAD_CAT_ID>63738</NORAD_CAT_ID><ELEMENT_SET_NO>999</ELEMENT_SET_NO><REV_AT_EPOCH>1459</REV_AT_EPOCH><BSTAR>.45189E-3</BSTAR><MEAN_MOTION_DOT>.17067E-3</MEAN_MOTION_DOT><MEAN_MOTION_DDOT>0</MEAN_MOTION_DDOT></tleParameters></data></segment></body></omm>
<omm id="CCSDS_OMM_VERS" version="2.0">
<header><CREATION_DATE/><ORIGINATOR/></header><body><segment><metadata><OBJECT_NAME>KUIPER-00025</OBJECT_NAME><OBJECT_ID>2025-088R</OBJECT_ID><CENTER_NAME>EARTH</CENTER_NAME><REF_FRAME>TEME</REF_FRAME><TIME_SYSTEM>UTC</TIME_SYSTEM><MEAN_ELEMENT_THEORY>SGP4</MEAN_ELEMENT_THEORY></metadata><data><meanElements><EPOCH>2025-07-28T06:00:02.000160</EPOCH><MEAN_MOTION>15.28842528</MEAN_MOTION><ECCENTRICITY>.0007686</ECCENTRICITY><INCLINATION>51.8732</INCLINATION><RA_OF_ASC_NODE>22.3450</RA_OF_ASC_NODE><ARG_OF_PERICENTER>62.7839</ARG_OF_PERICENTER><MEAN_ANOMALY>106.6439</MEAN_ANOMALY></meanElements><tleParameters><EPHEMERIS_TYPE>0</EPHEMERIS_TYPE><CLASSIFICATION_TYPE>U</CLASSIFICATION_TYPE><NORAD_CAT_ID>63739</NORAD_CAT_ID><ELEMENT_SET_NO>999</ELEMENT_SET_NO><REV_AT_EPOCH>1444</REV_AT_EPOCH><BSTAR>-.51168E-1</BSTAR><MEAN_MOTION_DOT>-.1329212E-1</MEAN_MOTION_DOT><MEAN_MOTION_DDOT>0</MEAN_MOTION_DDOT></tleParameters></data></segment></body></omm>

</ndm>
