KUIPER-00016            
1 63732U 25088J   25208.77334463  .00013298  00000+0  76255-3 0  9998
2 63732  51.8842  29.0912 0010183  57.4320 302.7638 15.12822471 13981
KUIPER-00018            
1 63733U 25088K   25209.25002315 -.00601926  00000+0 -22523-1 0  9991
2 63733  51.8743  22.2658 0005968  71.8277 166.4933 15.28990822 14112
KUIPER-00019            
1 63734U 25088L   25209.17779362 -.00001974  00000+0 -43807-4 0  9994
2 63734  51.8691  22.2588 0003857  92.6259 267.5169 15.36522967 14117
KUIPER-00020            
1 63735U 25088M   25209.25002315 -.00157323  00000+0 -65378-2 0  9996
2 63735  51.8791  22.9917 0007816  65.3861 151.1465 15.23926106 14315
KUIPER-00021            
1 63736U 25088N   25209.25002315  .00008638  00000+0  39404-3 0  9991
2 63736  51.8716  23.4749 0005476  73.0787 293.9637 15.21378632 14145
KUIPER-00023            
1 63737U 25088P   25209.25002315 -.00384792  00000+0 -18950-1 0  9993
2 63737  51.8792  24.1209 0009444  73.8241 346.0603 15.19225787 14435
KUIPER-00024            
1 63738U 25088Q   25209.17406469  .00017067  00000+0  45189-3 0  9995
2 63738  51.8717  21.5202 0001371 115.0137 245.0993 15.38468857 14596
KUIPER-00025            
1 63739U 25088R   25209.25002315 -.01329212  00000+0 -51168-1 0  9990
2 63739  51.8732  22.3450 0007686  62.7839 106.6439 15.28842528 14441
